{
    "links": {
        "self": "http://www.neowsapp.com/rest/v1/neo/3788044?api_key=iIulBulltgU6a56xZRHN4H3l9WmuAYTsLGpBGhQ2"
    },
    "id": "3788044",
    "neo_reference_id": "3788044",
    "name": "(2017 UH6)",
    "designation": "2017 UH6",
    "nasa_jpl_url": "http://ssd.jpl.nasa.gov/sbdb.cgi?sstr=3788044",
    "absolute_magnitude_h": 26.2,
    "estimated_diameter": {
        "kilometers": {
            "estimated_diameter_min": 0.0152951935,
            "estimated_diameter_max": 0.0342010925
        },
        "meters": {
            "estimated_diameter_min": 15.2951935344,
            "estimated_diameter_max": 34.201092472
        },
        "miles": {
            "estimated_diameter_min": 0.0095039897,
            "estimated_diameter_max": 0.021251567
        },
        "feet": {
            "estimated_diameter_min": 50.1810827555,
            "estimated_diameter_max": 112.2083122258
        }
    },
    "is_potentially_hazardous_asteroid": false,
    "close_approach_data": [
        {
            "close_approach_date": "1930-11-06",
            "close_approach_date_full": "1930-Nov-06 05:59",
            "epoch_date_close_approach": -1235584860000,
            "relative_velocity": {
                "kilometers_per_second": "30.2156029374",
                "kilometers_per_hour": "108776.1705745684",
                "miles_per_hour": "67589.2822106255"
            },
            "miss_distance": {
                "astronomical": "0.3394204455",
                "lunar": "132.0345532995",
                "kilometers": "50776575.681251085",
                "miles": "31551101.084331573"
            },
            "orbiting_body": "Earth"
        },
        {
            "close_approach_date": "2017-10-22",
            "close_approach_date_full": "2017-Oct-22 07:24",
            "epoch_date_close_approach": 1508657040000,
            "relative_velocity": {
                "kilometers_per_second": "20.4467573671",
                "kilometers_per_hour": "73608.326521394",
                "miles_per_hour": "45737.3515543629"
            },
            "miss_distance": {
                "astronomical": "0.0159277004",
                "lunar": "6.1958754556",
                "kilometers": "2382750.053838148",
                "miles": "1480572.2284085224"
            },
            "orbiting_body": "Earth"
        }
    ],
    "orbital_data": {
        "orbit_id": "1",
        "orbit_determination_date": "2017-10-26 18:31:12",
        "first_observation_date": "2017-10-25",
        "last_observation_date": "2017-10-26",
        "data_arc_in_days": 1,
        "observations_used": 29,
        "orbit_uncertainty": "8",
        "minimum_orbit_intersection": ".00964812",
        "jupiter_tisserand_invariant": "4.326",
        "epoch_osculation": "2458051.5",
        "eccentricity": ".6164587819312268",
        "semi_major_axis": "1.48863575611343",
        "inclination": "9.365313791606809",
        "ascending_node_longitude": "31.51270252661543",
        "orbital_period": "663.4085986826203",
        "perihelion_distance": ".5709531711604741",
        "perihelion_argument": "259.6977518653463",
        "aphelion_distance": "2.406318341066386",
        "perihelion_time": "2457997.672683028977",
        "mean_anomaly": "29.20950097428385",
        "mean_motion": ".5426519956402114",
        "equinox": "J2000",
        "orbit_class": {
            "orbit_class_type": "APO",
            "orbit_class_description": "Near-Earth asteroid orbits which cross the Earth’s orbit similar to that of 1862 Apollo",
            "orbit_class_range": "a (semi-major axis) > 1.0 AU; q (perihelion) < 1.017 AU"
        }
    },
    "is_sentry_object": false
}